{
  "type": "FeatureCollection",
  "features": [
    {
      "type": "Feature",
      "properties": {
        "norad_id": 66376,
        "name": "SHIYAN-32 01",
        "group": "last-30-days",
        "lat": 50.05679265051616,
        "lon": -69.7748156951101,
        "alt_km": 428.5878509868553,
        "timestamp": "2025-12-02T15:49:05.947682+00:00",
        "meta_object_name": "SHIYAN-32 01",
        "meta_object_id": "2025-255A",
        "meta_epoch": "2025-12-02T06:10:07.526784",
        "meta_mean_motion": 15.42220728,
        "meta_eccentricity": 0.00133822,
        "meta_inclination": 52.9964,
        "meta_ra_of_asc_node": 227.8956,
        "meta_arg_of_pericenter": 9.6935,
        "meta_mean_anomaly": 350.4325,
        "meta_ephemeris_type": 0,
        "meta_classification_type": "U",
        "meta_norad_cat_id": 66376,
        "meta_element_set_no": 999,
        "meta_rev_at_epoch": 373,
        "meta_bstar": 0.00055053782,
        "meta_mean_motion_dot": 0.00023738,
        "meta_mean_motion_ddot": 0,
        "tle_line1": "1 66376U 25255A   25336.25703156  .00023738  00000+0  55054-3 0  9999",
        "tle_line2": "2 66376  52.9964 227.8956 0013382   9.6935 350.4325 15.42220728  3731"
      },
      "geometry": {
        "type": "Point",
        "coordinates": [
          -69.7748156951101,
          50.05679265051616
        ]
      }
    },
    {
      "type": "Feature",
      "properties": {
        "norad_id": 66377,
        "name": "CZ-11 DEB",
        "group": "last-30-days",
        "lat": 33.29951415454129,
        "lon": 16.16468950716963,
        "alt_km": 437.5348049592458,
        "timestamp": "2025-12-02T15:49:05.947693+00:00",
        "meta_object_name": "CZ-11 DEB",
        "meta_object_id": "2025-255B",
        "meta_epoch": "2025-12-02T05:54:20.689920",
        "meta_mean_motion": 15.43422506,
        "meta_eccentricity": 0.00139135,
        "meta_inclination": 52.9965,
        "meta_ra_of_asc_node": 227.8262,
        "meta_arg_of_pericenter": 7.2692,
        "meta_mean_anomaly": 352.8511,
        "meta_ephemeris_type": 0,
        "meta_classification_type": "U",
        "meta_norad_cat_id": 66377,
        "meta_element_set_no": 999,
        "meta_rev_at_epoch": 359,
        "meta_bstar": 0.00096034802,
        "meta_mean_motion_dot": 0.00043578,
        "meta_mean_motion_ddot": 0,
        "tle_line1": "1 66377U 25255B   25336.24607280  .00043578  00000+0  96035-3 0  9998",
        "tle_line2": "2 66377  52.9965 227.8262 0013913   7.2692 352.8511 15.43422506  3593"
      },
      "geometry": {
        "type": "Point",
        "coordinates": [
          16.16468950716963,
          33.29951415454129
        ]
      }
    },
    {
      "type": "Feature",
      "properties": {
        "norad_id": 66378,
        "name": "SHIYAN-32 02",
        "group": "last-30-days",
        "lat": 13.191715585250432,
        "lon": 35.6276989131854,
        "alt_km": 441.0831537091699,
        "timestamp": "2025-12-02T15:49:05.947703+00:00",
        "meta_object_name": "SHIYAN-32 02",
        "meta_object_id": "2025-255C",
        "meta_epoch": "2025-12-02T05:47:35.112768",
        "meta_mean_motion": 15.43930613,
        "meta_eccentricity": 0.00126338,
        "meta_inclination": 52.9979,
        "meta_ra_of_asc_node": 227.7986,
        "meta_arg_of_pericenter": 8.6569,
        "meta_mean_anomaly": 351.4651,
        "meta_ephemeris_type": 0,
        "meta_classification_type": "U",
        "meta_norad_cat_id": 66378,
        "meta_element_set_no": 999,
        "meta_rev_at_epoch": 359,
        "meta_bstar": 0.0011780523,
        "meta_mean_motion_dot": 0.00054531,
        "meta_mean_motion_ddot": 0,
        "tle_line1": "1 66378U 25255C   25336.24137862  .00054531  00000+0  11781-2 0  9998",
        "tle_line2": "2 66378  52.9979 227.7986 0012633   8.6569 351.4651 15.43930613  3590"
      },
      "geometry": {
        "type": "Point",
        "coordinates": [
          35.6276989131854,
          13.191715585250432
        ]
      }
    },
    {
      "type": "Feature",
      "properties": {
        "norad_id": 66379,
        "name": "SHIYAN-32 03",
        "group": "last-30-days",
        "lat": 50.6148389417054,
        "lon": -20.80007815053715,
        "alt_km": 432.0883304763029,
        "timestamp": "2025-12-02T15:49:05.947715+00:00",
        "meta_object_name": "SHIYAN-32 03",
        "meta_object_id": "2025-255D",
        "meta_epoch": "2025-12-02T04:29:01.533984",
        "meta_mean_motion": 15.42574599,
        "meta_eccentricity": 0.00153989,
        "meta_inclination": 52.9971,
        "meta_ra_of_asc_node": 228.1704,
        "meta_arg_of_pericenter": 10.3875,
        "meta_mean_anomaly": 349.7444,
        "meta_ephemeris_type": 0,
        "meta_classification_type": "U",
        "meta_norad_cat_id": 66379,
        "meta_element_set_no": 999,
        "meta_rev_at_epoch": 360,
        "meta_bstar": 0.00055854174,
        "meta_mean_motion_dot": 0.00024407,
        "meta_mean_motion_ddot": 0,
        "tle_line1": "1 66379U 25255D   25336.18682331  .00024407  00000+0  55854-3 0  9997",
        "tle_line2": "2 66379  52.9971 228.1704 0015398  10.3875 349.7444 15.42574599  3605"
      },
      "geometry": {
        "type": "Point",
        "coordinates": [
          -20.80007815053715,
          50.6148389417054
        ]
      }
    },
    {
      "type": "Feature",
      "properties": {
        "norad_id": 66380,
        "name": "STARLINK-35139",
        "group": "last-30-days",
        "lat": 42.11387964113166,
        "lon": -5.175145998310491,
        "alt_km": 441.0774158215145,
        "timestamp": "2025-12-02T15:49:05.947728+00:00",
        "meta_object_name": "STARLINK-35139",
        "meta_object_id": "2025-257A",
        "meta_epoch": "2025-12-02T06:00:02.999808",
        "meta_mean_motion": 15.395704,
        "meta_eccentricity": 0.00011451,
        "meta_inclination": 53.159,
        "meta_ra_of_asc_node": 314.0828,
        "meta_arg_of_pericenter": 91.3004,
        "meta_mean_anomaly": 217.1914,
        "meta_ephemeris_type": 0,
        "meta_classification_type": "U",
        "meta_norad_cat_id": 66380,
        "meta_element_set_no": 999,
        "meta_rev_at_epoch": 475,
        "meta_bstar": 0.0011203799,
        "meta_mean_motion_dot": 0.00044604,
        "meta_mean_motion_ddot": 0,
        "tle_line1": "1 66380U 25257A   25336.25003472  .00044604  00000+0  11204-2 0  9993",
        "tle_line2": "2 66380  53.1590 314.0828 0001145  91.3004 217.1914 15.39570400  4757"
      },
      "geometry": {
        "type": "Point",
        "coordinates": [
          -5.175145998310491,
          42.11387964113166
        ]
      }
    },
    {
      "type": "Feature",
      "properties": {
        "norad_id": 66381,
        "name": "STARLINK-35158",
        "group": "last-30-days",
        "lat": 43.17687055501936,
        "lon": -3.1421672671335332,
        "alt_km": 440.78690993996406,
        "timestamp": "2025-12-02T15:49:05.947738+00:00",
        "meta_object_name": "STARLINK-35158",
        "meta_object_id": "2025-257B",
        "meta_epoch": "2025-12-02T06:00:02.999808",
        "meta_mean_motion": 15.39571328,
        "meta_eccentricity": 0.00014158,
        "meta_inclination": 53.1591,
        "meta_ra_of_asc_node": 314.0786,
        "meta_arg_of_pericenter": 94.7622,
        "meta_mean_anomaly": 215.5668,
        "meta_ephemeris_type": 0,
        "meta_classification_type": "U",
        "meta_norad_cat_id": 66381,
        "meta_element_set_no": 999,
        "meta_rev_at_epoch": 481,
        "meta_bstar": 0.0010427207,
        "meta_mean_motion_dot": 0.00041469,
        "meta_mean_motion_ddot": 0,
        "tle_line1": "1 66381U 25257B   25336.25003472  .00041469  00000+0  10427-2 0  9996",
        "tle_line2": "2 66381  53.1591 314.0786 0001415  94.7622 215.5668 15.39571328  4810"
      },
      "geometry": {
        "type": "Point",
        "coordinates": [
          -3.1421672671335332,
          43.17687055501936
        ]
      }
    },
    {
      "type": "Feature",
      "properties": {
        "norad_id": 66382,
        "name": "STARLINK-35639",
        "group": "last-30-days",
        "lat": 52.44979590455862,
        "lon": 29.34244211745408,
        "alt_km": 434.63097715197273,
        "timestamp": "2025-12-02T15:49:05.947748+00:00",
        "meta_object_name": "STARLINK-35639",
        "meta_object_id": "2025-257C",
        "meta_epoch": "2025-12-02T06:00:02.999808",
        "meta_mean_motion": 15.42553293,
        "meta_eccentricity": 0.00016957,
        "meta_inclination": 53.1593,
        "meta_ra_of_asc_node": 314.0367,
        "meta_arg_of_pericenter": 95.21,
        "meta_mean_anomaly": 235.2894,
        "meta_ephemeris_type": 0,
        "meta_classification_type": "U",
        "meta_norad_cat_id": 66382,
        "meta_element_set_no": 999,
        "meta_rev_at_epoch": 481,
        "meta_bstar": -0.042212223,
        "meta_mean_motion_dot": -0.01663638,
        "meta_mean_motion_ddot": 0,
        "tle_line1": "1 66382U 25257C   25336.25003472 -.01663638  00000+0 -42212-1 0  9994",
        "tle_line2": "2 66382  53.1593 314.0367 0001695  95.2100 235.2894 15.42553293  4810"
      },
      "geometry": {
        "type": "Point",
        "coordinates": [
          29.34244211745408,
          52.44979590455862
        ]
      }
    }
  ]
}